NORAD_CAT_ID,OBJECT_NAME,OBJECT_TYPE,EPOCH,MEAN_MOTION,ECCENTRICITY,INCLINATION,RA_OF_ASC_NODE,ARG_OF_PERICENTER,MEAN_ANOMALY,BSTAR,MEAN_MOTION_DOT,MEAN_MOTION_DDOT,TLE_LINE0,TLE_LINE1,TLE_LINE2,SEMIMAJOR_AXIS,PERIOD,APOGEE,PERIGEE,DECAYED
51774.0,STARLINK-3629,PAYLOAD,2024-07-25 22:31:50,15.08828896,0.0001448,53.2168,115.5927,79.2057,280.9098,0.0001378,1.905e-05,0.0,0 STARLINK-3629,1 51774U 22017G   24207.93877639  .00001905  00000-0  13780-3 0  9990,2 51774  53.2168 115.5927 0001448  79.2057 280.9098 15.08828896133231,6917.914,95.438,540.781,538.778,0.0
51774.0,STARLINK-3629,PAYLOAD,2024-07-26 03:17:59,15.08841817,0.0001231,53.217,114.6999,80.0875,280.0256,0.00013065,1.792e-05,0.0,0 STARLINK-3629,1 51774U 22017G   24208.13748942  .00001792  00000-0  13065-3 0  9997,2 51774  53.2170 114.6999 0001231  80.0875 280.0256 15.08841817134765,6917.875,95.437,540.591,538.888,0.0
51774.0,STARLINK-3629,PAYLOAD,2024-07-26 17:36:27,15.08844175,0.0001106,53.2173,112.0235,82.473,277.6388,0.00014235,1.979e-05,0.0,0 STARLINK-3629,1 51774U 22017G   24208.73364610  .00001979  00000-0  14235-3 0  9996,2 51774  53.2173 112.0235 0001106  82.4730 277.6388 15.08844175133352,6917.868,95.437,540.498,538.968,0.0
51774.0,STARLINK-3629,PAYLOAD,2024-07-27 22:13:24,15.08816369,0.0001292,53.2174,106.6731,74.4212,285.6923,0.00035686,5.392e-05,0.0,0 STARLINK-3629,1 51774U 22017G   24209.92597761  .00005392  00000-0  35686-3 0  9999,2 51774  53.2174 106.6731 0001292  74.4212 285.6923 15.08816369133533,6917.953,95.439,540.711,538.924,0.0
51774.0,STARLINK-3629,PAYLOAD,2024-07-27 23:48:47,15.08822144,0.0001197,53.2166,106.3746,78.4419,281.6708,0.00022821,3.344e-05,0.0,0 STARLINK-3629,1 51774U 22017G   24209.99221265  .00003344  00000-0  22821-3 0  9991,2 51774  53.2166 106.3746 0001197  78.4419 281.6708 15.08822144135047,6917.935,95.439,540.628,538.972,0.0
51774.0,STARLINK-3629,PAYLOAD,2024-07-28 22:04:11,15.08847475,0.0001548,53.2175,102.2153,86.0385,274.0784,-0.00025575,-4.357e-05,0.0,0 STARLINK-3629,1 51774U 22017G   24210.91957453 -.00004357  00000-0 -25575-3 0  9996,2 51774  53.2175 102.2153 0001548  86.0385 274.0784 15.08847475133683,6917.858,95.437,540.793,538.652,0.0
51774.0,STARLINK-3629,PAYLOAD,2024-07-28 23:39:34,15.08838026,0.0001368,53.2163,101.9128,85.7389,274.3759,-5.052e-05,-1.092e-05,0.0,0 STARLINK-3629,1 51774U 22017G   24210.98581527 -.00001092  00000-0 -50520-4 0  9990,2 51774  53.2163 101.9128 0001368  85.7389 274.3759 15.08838026135193,6917.886,95.438,540.698,538.805,0.0
51774.0,STARLINK-3629,PAYLOAD,2024-07-29 09:11:53,15.08830236,0.0001574,53.2178,100.1343,96.9509,263.1662,9.2168e-05,1.179e-05,0.0,0 STARLINK-3629,1 51774U 22017G   24211.38325504  .00001179  00000-0  92168-4 0  9994,2 51774  53.2178 100.1343 0001574  96.9509 263.1662 15.08830236133750,6917.91,95.438,540.864,538.686,0.0
51774.0,STARLINK-3629,PAYLOAD,2024-07-29 21:54:58,15.08837434,0.0001491,53.2173,97.753,92.8864,267.2299,0.00013759,1.902e-05,0.0,0 STARLINK-3629,1 51774U 22017G   24211.91317167  .00001902  00000-0  13759-3 0  9991,2 51774  53.2173  97.7530 0001491  92.8864 267.2299 15.08837434133838,6917.888,95.438,540.785,538.722,0.0
51774.0,STARLINK-3629,PAYLOAD,2024-07-29 23:30:21,15.0883995,0.0001488,53.2172,97.4569,95.0245,265.0917,0.00015593,2.195e-05,0.0,0 STARLINK-3629,1 51774U 22017G   24211.97940988  .00002195  00000-0  15593-3 0  9993,2 51774  53.2172  97.4569 0001488  95.0245 265.0917 15.08839950135346,6917.881,95.438,540.775,538.716,0.0
51774.0,STARLINK-3629,PAYLOAD,2024-07-30 09:02:40,15.08838501,0.0001397,53.2167,95.6726,94.6828,265.4324,7.147e-05,8.5e-06,0.0,0 STARLINK-3629,1 51774U 22017G   24212.37685398  .00000850  00000-0  71470-4 0  9992,2 51774  53.2167  95.6726 0001397  94.6828 265.4324 15.08838501133903,6917.885,95.438,540.716,538.784,0.0
51774.0,STARLINK-3629,PAYLOAD,2024-07-30 21:45:45,15.08819245,0.0001306,53.2164,93.2933,98.7021,261.4119,0.0003921,5.954e-05,0.0,0 STARLINK-3629,1 51774U 22017G   24212.90677736  .00005954  00000-0  39210-3 0  9993,2 51774  53.2164  93.2933 0001306  98.7021 261.4119 15.08819245135481,6917.944,95.439,540.712,538.905,0.0
51774.0,STARLINK-3629,PAYLOAD,2024-07-31 08:53:27,15.08843098,0.0001342,53.2173,91.2099,86.5194,273.5951,6.782e-05,7.92e-06,0.0,0 STARLINK-3629,1 51774U 22017G   24213.37045190  .00000792  00000-0  67820-4 0  9992,2 51774  53.2173  91.2099 0001342  86.5194 273.5951 15.08843098134051,6917.871,95.437,540.664,538.808,0.0
51774.0,STARLINK-3629,PAYLOAD,2024-07-31 23:11:56,15.08833313,0.0001432,53.2174,88.5347,86.8918,273.2238,-0.00010424,-1.946e-05,0.0,0 STARLINK-3629,1 51774U 22017G   24213.96662635 -.00001946  00000-0 -10424-3 0  9997,2 51774  53.2174  88.5347 0001432  86.8918 273.2238 15.08833313134148,6917.901,95.438,540.756,538.775,0.0
51774.0,STARLINK-3629,PAYLOAD,2024-08-01 08:44:14,15.08847477,0.0001503,53.2185,86.7505,89.5221,270.5943,-4.2935e-05,-9.71e-06,0.0,0 STARLINK-3629,1 51774U 22017G   24214.36405534 -.00000971  00000-0 -42935-4 0  9995,2 51774  53.2185  86.7505 0001503  89.5221 270.5943 15.08847477135704,6917.858,95.437,540.762,538.683,0.0
51774.0,STARLINK-3629,PAYLOAD,2024-08-01 21:27:18,15.08861928,0.0001365,53.2171,84.3714,94.416,265.6988,0.00012797,1.75e-05,0.0,0 STARLINK-3629,1 51774U 22017G   24214.89395981  .00001750  00000-0  12797-3 0  9993,2 51774  53.2171  84.3714 0001365  94.4160 265.6988 15.08861928135787,6917.813,95.436,540.623,538.734,0.0
51774.0,STARLINK-3629,PAYLOAD,2024-08-01 23:02:41,15.08864881,0.000136,53.2171,84.0741,95.1988,264.916,0.00015994,2.26e-05,0.0,0 STARLINK-3629,1 51774U 22017G   24214.96019715  .00002260  00000-0  15994-3 0  9998,2 51774  53.2171  84.0741 0001360  95.1988 264.9160 15.08864881134295,6917.804,95.436,540.61,538.729,0.0
51774.0,STARLINK-3629,PAYLOAD,2024-08-02 08:35:00,15.08846245,0.0001483,53.2173,82.2887,79.7514,280.3645,7.4261e-05,8.94e-06,0.0,0 STARLINK-3629,1 51774U 22017G   24215.35765016  .00000894  00000-0  74261-4 0  9998,2 51774  53.2173  82.2887 0001483  79.7514 280.3645 15.08846245135854,6917.861,95.437,540.752,538.7,0.0
51774.0,STARLINK-3629,PAYLOAD,2024-08-02 14:56:34,15.08830284,0.0002003,53.2167,81.1017,78.6569,281.4648,0.00019431,2.805e-05,0.0,0 STARLINK-3629,1 51774U 22017G   24215.62262344  .00002805  00000-0  19431-3 0  9995,2 51774  53.2167  81.1017 0002003  78.6569 281.4648 15.08830284134396,6917.91,95.438,541.161,538.389,0.0
51774.0,STARLINK-3629,PAYLOAD,2024-08-02 21:18:06,15.08830532,0.0001281,53.2157,79.9118,78.619,281.4946,3.6561e-06,-2.3e-06,0.0,0 STARLINK-3629,1 51774U 22017G   24215.88758089 -.00000230  00000-0  36561-5 0  9995,2 51774  53.2157  79.9118 0001281  78.6190 281.4946 15.08830532135937,6917.909,95.438,540.661,538.888,0.0
51774.0,STARLINK-3629,PAYLOAD,2024-08-03 08:25:48,15.08844656,0.0001474,53.2155,77.8284,83.1182,276.9978,0.00027467,4.087e-05,0.0,0 STARLINK-3629,1 51774U 22017G   24216.35125688  .00004087  00000-0  27467-3 0  9997,2 51774  53.2155  77.8284 0001474  83.1182 276.9978 15.08844656136007,6917.866,95.437,540.751,538.711,0.0
51774.0,STARLINK-3629,PAYLOAD,2024-08-03 21:08:53,15.08857811,0.0001574,53.216,75.4484,87.8277,272.2895,0.0011333,0.00017803,0.0,0 STARLINK-3629,1 51774U 22017G   24216.88117706  .00017803  00000-0  11333-2 0  9991,2 51774  53.2160  75.4484 0001574  87.8277 272.2895 15.08857811134581,6917.826,95.436,540.78,538.602,0.0
51774.0,STARLINK-3629,PAYLOAD,2024-08-04 00:19:39,15.08865361,0.0001565,53.2159,74.8536,87.335,272.7822,0.0012739,0.00020058,0.0,0 STARLINK-3629,1 51774U 22017G   24217.01365485  .00020058  00000-0  12739-2 0  9993,2 51774  53.2159  74.8536 0001565  87.3350 272.7822 15.08865361136101,6917.803,95.436,540.751,538.585,0.0
51774.0,STARLINK-3629,PAYLOAD,2024-08-04 14:38:08,15.08852027,0.0001423,53.216,72.1775,78.2596,281.8556,0.00064766,0.00010038,0.0,0 STARLINK-3629,1 51774U 22017G   24217.60981724  .00010038  00000-0  64766-3 0  9993,2 51774  53.2160  72.1775 0001423  78.2596 281.8556 15.08852027134695,6917.844,95.437,540.693,538.724,0.0
51774.0,STARLINK-3629,PAYLOAD,2024-08-04 20:59:40,15.08870444,0.0001492,53.2163,70.9876,98.9281,261.188,0.0014596,0.00023037,0.0,0 STARLINK-3629,1 51774U 22017G   24217.87477364  .00023037  00000-0  14596-2 0  9990,2 51774  53.2163  70.9876 0001492  98.9281 261.1880 15.08870444136238,6917.787,95.436,540.684,538.62,0.0
51774.0,STARLINK-3629,PAYLOAD,2024-08-05 20:50:27,15.08844831,0.0001392,53.2161,66.5293,84.2839,275.8312,0.00017912,2.564e-05,0.0,0 STARLINK-3629,1 51774U 22017G   24218.86837689  .00002564  00000-0  17912-3 0  9998,2 51774  53.2161  66.5293 0001392  84.2839 275.8312 15.08844831136385,6917.866,95.437,540.694,538.768,0.0
51774.0,STARLINK-3629,PAYLOAD,2024-08-06 06:22:46,15.08837116,0.0001397,53.2157,64.7408,75.1858,284.9289,0.00012309,1.671e-05,0.0,0 STARLINK-3629,1 51774U 22017G   24219.26581958  .00001671  00000-0  12309-3 0  9991,2 51774  53.2157  64.7408 0001397  75.1858 284.9289 15.08837116136442,6917.889,95.438,540.721,538.788,0.0
51774.0,STARLINK-3629,PAYLOAD,2024-08-06 14:19:42,15.08830172,0.0001365,53.2168,63.2569,102.1947,257.9199,-7.2115e-05,-1.435e-05,0.0,0 STARLINK-3629,1 51774U 22017G   24219.59702261 -.00001435  00000-0 -72115-4 0  9991,2 51774  53.2168  63.2569 0001365 102.1947 257.9199 15.08830172134994,6917.91,95.438,540.72,538.831,0.0
51774.0,STARLINK-3629,PAYLOAD,2024-08-06 20:41:15,15.08837836,0.0001493,53.2164,62.0647,103.2651,256.8508,4.7301e-05,4.65e-06,0.0,0 STARLINK-3629,1 51774U 22017G   24219.86197990  .00000465  00000-0  47301-4 0  9997,2 51774  53.2164  62.0647 0001493 103.2651 256.8508 15.08837836135032,6917.887,95.438,540.785,538.719,0.0
51774.0,STARLINK-3629,PAYLOAD,2024-08-07 20:32:02,15.08846843,0.0001317,53.2167,57.6059,98.7604,261.3537,0.00021855,3.193e-05,0.0,0 STARLINK-3629,1 51774U 22017G   24220.85557900  .00003193  00000-0  21855-3 0  9995,2 51774  53.2167  57.6059 0001317  98.7604 261.3537 15.08846843136686,6917.859,95.437,540.636,538.813,0.0
